OBJECT_NAME,OBJECT_ID,EPOCH,MEAN_MOTION,ECCENTRICITY,INCLINATION,RA_OF_ASC_NODE,ARG_OF_PERICENTER,MEAN_ANOMALY,EPHEMERIS_TYPE,CLASSIFICATION_TYPE,NORAD_CAT_ID,ELEMENT_SET_NO,REV_AT_EPOCH,BSTAR,MEAN_MOTION_DOT,MEAN_MOTION_DDOT
PERSEUS-M1,2014-033AF,2026-07-02T03:44:30.808896,14.95682004,.00100944,97.9648,127.5341,245.1554,114.8617,0,U,40039,999,65287,.1314429E-3,.1402E-4,0
POLYITAN-1,2014-033AJ,2026-07-01T19:10:51.813120,15.33780662,.00087487,98.0933,210.4473,101.4445,258.7779,0,U,40042,999,65583,.71283433E-3,.2327E-3,0
TIGRISAT,2014-033AK,2026-07-02T03:21:32.942304,14.85215979,.00497398,97.7850,332.8105,27.1271,333.2527,0,U,40043,999,64784,.23415744E-3,.1997E-4,0
AEROCUBE 6A,2014-033AM,2026-07-02T04:26:02.914944,14.98237003,.00377845,97.7228,349.9756,325.6828,34.1953,0,U,40045,999,64886,.50378236E-3,.6014E-4,0
AEROCUBE 6B,2014-033AN,2026-07-02T04:08:21.924672,14.99698484,.00377021,97.7222,349.7869,316.4138,43.4108,0,U,40046,999,64900,.45114216E-3,.5588E-4,0
CANX-4,2014-034C,2026-07-02T05:10:22.047744,14.81292189,.00120392,98.3101,59.0790,328.4295,31.6193,0,U,40055,999,64675,.14281333E-3,.1058E-4,0
CANX-5,2014-034D,2026-07-02T05:07:51.536352,14.81309505,.00120432,98.3104,59.1217,328.6477,31.4015,0,U,40056,999,63756,.14294744E-3,.1059E-4,0
UKUBE-1,2014-037F,2026-07-02T05:46:09.738336,15.13782027,.00031522,98.4235,188.0962,109.2963,250.8606,0,U,40074,999,65083,.53118523E-3,.9513E-4,0
BRITE-PL2 (HEWELIUSZ),2014-049B,2026-07-02T07:15:43.153056,14.94648804,.00150918,97.9111,295.4202,62.4732,297.8020,0,U,40119,999,64370,.17933618E-3,.1888E-4,0
AEROCUBE 5C,2015-058B,2026-07-02T06:10:41.820672,14.91516129,.01315098,64.7653,215.7053,57.3980,303.9747,0,U,40965,999,36790,.24470991E-3,.2722E-4,0
AEROCUBE 7,2015-058C,2026-07-02T06:39:32.733216,14.95817640,.01212171,64.7601,197.5464,55.7387,305.5136,0,U,40966,999,36821,.35978086E-3,.4492E-4,0
FOX-1A (AO-85),2015-058D,2026-07-02T07:26:15.865440,14.91032716,.01314233,64.7737,231.9854,50.7128,310.5553,0,U,40967,999,11582,.23447508E-3,.2565E-4,0
SINOD-D 1,2015-058E,2026-07-02T04:28:55.634592,14.95995464,.01200425,64.7728,211.9368,47.1674,313.9452,0,U,40968,999,11890,.33091822E-3,.4124E-4,0
SNAP-3 ALICE,2015-058G,2026-07-02T00:41:03.914592,15.63950208,.00237064,64.7496,52.4926,0.2063,359.9090,0,U,40970,999,11920,.15886809E-2,.155416E-2,0
LMRST-SAT,2015-058H,2026-07-02T06:27:28.938816,14.90649368,.01329899,64.7743,228.4788,52.7606,308.5550,0,U,40971,999,11580,.23220795E-3,.2522E-4,0
SNAP-3 EDDIE,2015-058J,2026-07-02T00:09:57.950208,15.65141975,.00244409,64.7410,43.1813,3.4118,356.7192,0,U,40972,999,12134,.14945776E-2,.153398E-2,0
PROPCUBE 3,2015-058K,2026-07-02T04:48:56.379456,14.94335832,.01249027,64.7664,205.6254,54.0091,307.2526,0,U,40973,999,11704,.30218905E-3,.3623E-4,0
BISONSAT,2015-058L,2026-07-02T04:50:48.417792,15.16601138,.00808363,64.7582,125.0855,41.1273,319.5905,0,U,40974,999,11789,.88315251E-3,.18693E-3,0
SNAP-3 JIMI,2015-058M,2026-07-02T07:11:30.767424,15.02456088,.01070058,64.7634,171.9517,49.3328,311.7029,0,U,40975,999,11649,.54063324E-3,.7969E-4,0
PROPCUBE 1 (FLORA),2015-058N,2026-07-02T07:19:12.355968,14.89283119,.01315806,64.7731,248.3802,55.0593,306.2795,0,U,40976,999,11851,.20545014E-3,.2119E-4,0
SINOD-D 3,2015-058P,2026-07-02T07:14:23.552736,14.94099480,.01201439,64.7707,228.6190,52.1438,309.0473,0,U,40977,999,11701,.29834413E-3,.3509E-4,0
HORYU-4,2016-012D,2026-07-01T19:00:28.190016,16.27112331,.00086595,30.9791,330.1929,346.1826,13.8606,0,U,41340,999,57316,.11150615E-2,.4204222E-1,-.3865025E-5
RAVAN,2016-067B,2026-07-02T05:26:21.987168,15.56197388,.00019019,97.9863,74.5513,324.7714,35.3413,0,U,41849,999,53003,.85445975E-3,.60112E-3,0
CELTEE 1,2016-067C,2026-07-01T21:21:19.436256,15.19825617,.00017628,98.0651,50.4594,125.7705,234.3693,0,U,41850,999,52811,.28895333E-3,.6116E-4,0
OPTICUBE 04,2016-067D,2026-07-02T02:59:39.429888,15.09725753,.00169519,98.0684,36.1871,69.3371,290.9672,0,U,41851,999,52742,.17156924E-3,.2704E-4,0
AEROCUBE 8D,2016-067E,2026-07-02T04:28:27.938208,15.24608374,.00050131,98.0659,54.4988,88.2153,271.9657,0,U,41852,999,52835,.37381155E-3,.9145E-4,0
AEROCUBE 8C,2016-067F,2026-07-01T08:32:27.317472,15.24848091,.00056441,98.0534,50.8147,28.9587,331.1961,0,U,41853,999,52822,.40921263E-3,.10093E-3,0
CORVUS BC2,2017-042X,2026-07-01T22:36:17.961984,15.06385064,.0014146,97.4073,343.7190,64.8133,295.4560,0,U,42846,999,48928,.26509031E-3,.3853E-4,0
CORVUS BC1,2017-042Y,2026-07-02T04:48:46.105632,15.06554624,.00126027,97.4110,344.7914,42.4422,317.7778,0,U,42847,999,48935,.31332636E-3,.4584E-4,0
MAKERSAT 0,2017-073D,2026-07-01T17:49:11.898912,15.32570583,.01048938,97.4602,65.3778,220.3477,138.9950,0,U,43016,999,46869,.56438682E-3,.21095E-3,0
